PROXIMA II              
1 43696U 18088G   22100.18837187  .00010684  00000+0  42172-3 0  9998
2 43696  85.0343 358.4913 0018113  14.9514 345.2261 15.25239499189554
FACSAT-1                
1 43721U 18096C   22100.17717113  .00022541  00000+0  69785-3 0  9995
2 43721  97.3529 180.1996 0013569 297.7264 116.1129 15.33384884187508
CENTAURI-2              
1 43722U 18096D   22100.16105997  .00026000  00000+0  74593-3 0  9993
2 43722  97.3579 181.8207 0013173 293.7515  66.2347 15.35766687187585
INNOSAT-2               
1 43738U 18096V   22100.12924105  .00048053  00000+0  11012-2 0  9994
2 43738  97.3673 187.8885 0015829 284.4081 163.3512 15.42480731187955
SIRION PATHFINDER-2     
1 43759U 18099B   22099.89144101  .00001821  00000+0  16682-3 0  9992
2 43759  97.6263 168.4472 0015301 127.5298 232.7316 14.96064624182792
CORVUS BC4              
1 43767U 18099K   22099.88496825  .00001895  00000+0  17610-3 0  9996
2 43767  97.6224 167.0469 0012784 131.9844 228.2468 14.95465392182724
MOVE-II                 
1 43780U 18099Y   22099.92200765  .00005191  00000+0  45440-3 0  9997
2 43780  97.6288 169.0202 0014372 138.6543 221.5769 14.97054696182803
SPACEBEE-7              
1 43816U 18099BL  22100.17438685  .00003766  00000+0  33095-3 0  9990
2 43816  97.6308 169.9844 0014070 122.2728 237.9859 14.97076661182432
SPACEBEE-5              
1 43817U 18099BM  22100.17806422  .00010427  00000+0  84748-3 0  9992
2 43817  97.6429 172.4288 0012070 122.7074 237.5315 14.99715536182532
SPACEBEE-6              
1 43818U 18099BN  22100.17187942  .00005392  00000+0  46234-3 0  9995
2 43818  97.6350 170.7193 0013817 120.9137 239.3446 14.97850215182618
SHIELDS 1               
1 43850U 18104B   22099.72612821  .00004945  00000+0  20840-3 0  9993
2 43850  85.0247  97.8044 0015596 149.9869 210.2271 15.22952925184046
STF-1                   
1 43852U 18104D   22099.54489816  .00012219  00000+0  48553-3 0  9995
2 43852  85.0280  98.4025 0014349 160.8366 199.3420 15.25086519184032
ZACUBE-2                
1 43907U 18111AH  22100.04421750  .00006239  00000+0  23980-3 0  9997
2 43907  97.1992 348.7921 0019388 327.5337 143.2786 15.26596009182853
LUME 1                  
1 43908U 18111AJ  22099.95474493  .00012396  00000+0  44176-3 0  9998
2 43908  97.2005 349.9513 0017808 323.1160  36.8854 15.28902391182929
AOBA VELOX-IV           
1 43940U 19003J   22099.85821708  .00032746  00000+0  10133-2 0  9995
2 43940  97.1377 137.9037 0020006  37.2592 323.0034 15.33213567179606
MOVE-IIB                
1 44398U 19038N   22099.92341070  .00017289  00000+0  87633-3 0  9993
2 44398  97.6229  68.7648 0023104  11.0779 349.0955 15.16794957152646
SONATE                  
1 44400U 19038Q   22099.86652821  .00007413  00000+0  41030-3 0  9998
2 44400  97.6299  68.1298 0024738  13.8838 346.3066 15.13880574152553
LUCKY-7                 
1 44406U 19038W   22099.90261399  .00008414  00000+0  45582-3 0  9993
2 44406  97.6326  68.5940 0023537  12.7290 347.4530 15.14627373152582
BEESAT 9                
1 44412U 19038AC  22099.88396137  .00011370  00000+0  59900-3 0  9990
2 44412  97.6296  68.7606 0021384  17.9324 342.2657 15.15569663152300
JAISAT-1                
1 44419U 19038F   22100.15522678  .00010298  00000+0  53589-3 0  9996
2 44419  97.6303  69.8169 0020215  14.7870 345.3949 15.16054367152708
DUCHIFAT-3              
1 44854U 19089C   22100.18821134  .00004799  00000+0  37934-3 0  9992
2 44854  36.9634 144.8813 0008034  18.6933  25.9774 15.00517395127675
EYESAT-NANO             
1 44877U 19092E   22099.46803823  .00013663  00000+0  62108-3 0  9995
2 44877  97.4647 284.3992 0011376 234.3833 125.6344 15.20809384127870
ORBITAL FACTORY 2 (OF-2)
1 45113U 19071C   22099.55097676  .00030540  00000+0  71644-3 0  9995
2 45113  51.6410  37.4821 0008301 285.1104  74.8963 15.41757690122738
M2 PATHFINDER           
1 45727U 20037E   22099.74057984  .00001412  00000+0  14544-3 0  9991
2 45727  97.7317 276.4831 0011499 265.2065  94.7835 14.91791853 96584
NETSAT-4                
1 46504U 20068U   22099.81285756  .00004070  00000+0  30703-3 0  9995
2 46504  97.7177  39.7830 0011293 185.8523 174.2565 15.02960731 83732
NETSAT-3                
1 46505U 20068V   22099.82638959  .00004388  00000+0  33091-3 0  9999
2 46505  97.7164  39.7274 0010957 197.8101 162.2740 15.02931765 83740
NETSAT-1                
1 46506U 20068W   22099.77400118  .00005258  00000+0  39618-3 0  9996
2 46506  97.7140  39.6140 0009306 212.3799 147.6849 15.02885230 83739
NETSAT-2                
1 46507U 20068X   22099.78214690  .00005105  00000+0  38527-3 0  9995
2 46507  97.7135  39.6173 0008139 220.5255 139.5365 15.02843538 83683
SPOC                    
1 46921U 98067RR  22099.78589034  .00133008  00000+0  92607-3 0  9999
2 46921  51.6355 285.5854 0003187 236.9460 123.1233 15.73435041 81125
BOBCAT-1                
1 46922U 98067RS  22098.90122068  .11905367  12464-4  72310-3 0  9991
2 46922  51.6240 272.7697 0008754 281.6685  78.3359 16.41269594 81172
NEUTRON-1               
1 46923U 98067RT  22099.76147226  .00128674  00000+0  90221-3 0  9995
2 46923  51.6356 286.1827 0003483 237.4143 122.6520 15.73285641 81142
DESCENT                 
1 46927U 98067RX  22099.80241426  .00145973  00000+0  97894-3 0  9995
2 46927  51.6341 285.6996 0004298 237.3413 122.7171 15.74257069 81063
SAI-1 NANOCONNECT-2     
1 47701U 21015C   22089.17476740 -.00000073  00000+0  00000+0 0  9994
2 47701  97.4113 166.5771 0015583   2.4776 357.8237 15.25181835 60120
WARP-01                 
1 47924U 98067SA  22099.81432000  .00430298  00000+0  16505-2 0  9990
2 47924  51.6283 289.4356 0007022 249.1026 110.9226 15.85694670 61060
RSP-01                  
1 47925U 98067SB  22099.82087203  .00168009  00000+0  11907-2 0  9992
2 47925  51.6362 294.8344 0003562 243.1885 116.8749 15.72898212 60976
TAUSAT-1                
1 47926U 98067SC  22099.78790212  .00324186  00000+0  13243-2 0  9994
2 47926  51.6278 288.5346 0006955 261.8879  98.1335 15.84646905 61049
TSURU                   
1 47927U 98067SD  22099.86366366  .00118991  00000+0  97839-3 0  9992
2 47927  51.6356 296.6156 0002623 236.1375 123.9373 15.69535781 60950
STARS-EC                
1 47928U 98067SE  22099.86173426  .01010332  50198-3  20400-2 0  9993
2 47928  51.6276 286.7367 0010424 268.2465  91.7351 15.98976635 61060
MAYA-2                  
1 47929U 98067SF  22099.86162050  .00117744  00000+0  97281-3 0  9994
2 47929  51.6358 296.6012 0002544 237.9174 122.1576 15.69424464 60910
HIROGARI (OPUSAT-II)    
1 47930U 98067SG  22099.75500711  .01193897  77705-3  19642-2 0  9992
2 47930  51.6232 285.2558 0011199 279.2876  80.6868 16.02554838 61095
GUARANISAT-1            
1 47931U 98067SH  22099.91462776  .00116846  00000+0  95767-3 0  9990
2 47931  51.6373 296.2227 0002518 237.8805 122.1948 15.69622335 60960
SMOG-1                  
1 47964U 21022AJ  22099.96477623  .00008309  00000+0  52790-3 0  9998
2 47964  97.5360   1.7953 0019437  16.9592 343.2282 15.08944088 56555
MMSATS-1                
1 47976U 98067SJ  22099.92333178  .00025885  00000+0  37561-3 0  9993
2 47976  51.6435 308.2447 0002904 136.8796 223.2423 15.55643359 59583
BCCSAT-1                
1 48041U 21022AK  22099.98076611  .00007851  00000+0  50966-3 0  9993
2 48041  97.5372   1.5107 0015952  16.4890 343.6854 15.08218869 56514
RAMSAT                  
1 48850U 98067SL  22099.92364229  .00061929  00000+0  71770-3 0  9995
2 48850  51.6395 305.2550 0004797 184.3333 175.7620 15.61201250 46593
BD-28                   
1 48867U 98067SN  22099.83014406  .00073568  00000+0  80099-3 0  9998
2 48867  51.6370 304.6116 0004609 209.7892 150.2840 15.62742103 45341
MIR-SAT 1               
1 48868U 98067SP  22099.95114202  .00852213  32820-3  21195-2 0  9999
2 48868  51.6256 292.5715 0010921 262.1687  97.8081 15.95166045 45540
1998-067SR              
1 49272U 98067SR  22099.84479217  .00067082  00000+0  81161-3 0  9990
2 49272  51.6393 309.2086 0002012  92.6322 267.4901 15.60053668 28920
1998-067SS              
1 49273U 98067SS  22099.80024506  .00097829  00000+0  10473-2 0  9993
2 49273  51.6384 308.1626 0001077 131.4335 228.6752 15.63061751 28934
1998-067ST              
1 49274U 98067ST  22099.87340683  .00094933  00000+0  10233-2 0  9995
2 49274  51.6380 307.8994 0001046 129.4878 230.6209 15.62899417 28948
CUAVA-1                 
1 49275U 98067SU  22099.85630870  .00068468  00000+0  77852-3 0  9999
2 49275  51.6403 308.2751 0002437 124.9751 355.6943 15.61662074 28888
